OBJECT_NAME,OBJECT_ID,EPOCH,MEAN_MOTION,ECCENTRICITY,INCLINATION,RA_OF_ASC_NODE,ARG_OF_PERICENTER,MEAN_ANOMALY,EPHEMERIS_TYPE,CLASSIFICATION_TYPE,NORAD_CAT_ID,ELEMENT_SET_NO,REV_AT_EPOCH,BSTAR,MEAN_MOTION_DOT,MEAN_MOTION_DDOT
STARLINK-30908,2023-180Y,2025-11-04T21:11:51.308736,15.02534243,.00011462,43.0037,13.0122,274.6120,85.4591,0,U,58424,999,10882,-.27383274E-4,-.573E-5,0
CHUANGXIN 20A (CX-20A),2023-181A,2025-11-05T06:28:48.566784,13.41470028,.00129755,49.9592,67.8095,304.9493,55.0165,0,U,58425,999,9569,.10428113E-3,-.7E-6,0
CHUANGXIN 20B (CX-20B),2023-181B,2025-11-05T06:38:29.661216,13.41461468,.00109854,49.9590,67.8349,308.0351,51.9533,0,U,58426,999,9568,.65944923E-4,-.91E-6,0
CHUANGXIN 20C (CX-20C),2023-181C,2025-11-05T06:33:37.790784,13.41467118,.00109677,49.9597,67.8185,295.8740,64.1005,0,U,58427,999,9569,.67094302E-4,-.91E-6,0
COSMOS 2572,2023-182A,2025-11-05T07:56:16.740384,15.90082533,.0007782,96.6939,51.8677,188.7552,171.3588,0,U,58435,999,11288,.83163E-6,-.346E-5,.18824E-5
STARLINK-30869,2023-183A,2025-11-04T20:21:39.345120,15.02539683,.00012079,43.0050,1.7811,274.8809,85.1896,0,U,58437,999,10793,.5323241E-5,-.132E-5,0
STARLINK-30969,2023-183B,2025-11-04T20:26:27.430368,15.02534378,.00012491,43.0029,1.8070,277.3288,82.7412,0,U,58438,999,10793,.10341973E-4,-.64E-6,0
STARLINK-30951,2023-183C,2025-11-04T20:16:52.252608,15.02531982,.00011307,43.0041,1.7558,277.6501,82.4213,0,U,58439,999,10793,.53154642E-4,.514E-5,0
STARLINK-30950,2023-183D,2025-11-04T17:44:50.697888,15.27581601,.00010017,43.0010,190.7795,253.4179,106.6563,0,U,58440,999,10992,-.21179338E-4,-.845E-5,0
STARLINK-30942,2023-183E,2025-11-04T11:54:14.793984,15.02552569,.0001524,43.0052,3.4411,272.8685,87.1983,0,U,58441,999,10788,-.19919E-3,-.2895E-4,0
STARLINK-30959,2023-183F,2025-11-04T13:20:23.185824,15.02538088,.0001136,43.0044,3.0291,275.4566,84.6147,0,U,58442,999,10789,.34358E-4,.261E-5,0
STARLINK-30971,2023-183G,2025-11-04T19:57:41.153184,15.02534496,.00011794,43.0028,1.6508,273.0170,87.0537,0,U,58443,999,10793,-.3588213E-5,-.252E-5,0
STARLINK-30963,2023-183H,2025-11-04T11:39:51.923232,15.02535746,.00012023,43.0037,3.3606,272.0618,88.0087,0,U,58444,999,10788,.13917902E-4,-.16E-6,0
STARLINK-30961,2023-183J,2025-11-04T21:09:26.730432,15.02530375,.00012005,43.0030,1.1674,273.1723,86.8982,0,U,58445,999,10794,-.4629902E-4,-.829E-5,0
STARLINK-30975,2023-183K,2025-11-04T20:42:25.858656,15.02537778,.00012806,43.0027,1.8741,271.2090,88.8605,0,U,58446,999,10795,.94509175E-4,.1073E-4,0
STARLINK-30976,2023-183L,2025-11-04T20:55:03.368928,15.02546600,.0001367,43.0051,1.1252,271.8816,88.1869,0,U,58447,999,10794,-.14334108E-3,-.214E-4,0
STARLINK-30926,2023-183M,2025-11-04T20:50:14.828352,15.02546524,.00010456,43.0044,1.0283,296.6000,63.4735,0,U,58448,999,10794,-.1086117E-3,-.1671E-4,0
STARLINK-30943,2023-183N,2025-11-04T19:15:26.645472,15.02525910,.00011908,43.0026,336.2545,271.7856,88.2850,0,U,58449,999,10822,.86825661E-4,.969E-5,0
STARLINK-30946,2023-183P,2025-11-04T20:31:14.795904,15.02540685,.00012491,43.0048,1.8305,275.1404,84.9296,0,U,58450,999,10793,.21267144E-4,.84E-6,0
STARLINK-30944,2023-183Q,2025-11-04T21:04:38.813664,15.02532854,.00013325,43.0025,1.1467,277.1846,82.8845,0,U,58451,999,10791,-.44641459E-4,-.807E-5,0
STARLINK-30928,2023-183R,2025-11-04T20:59:51.158688,15.02533489,.00012095,43.0024,1.1213,277.0742,82.9963,0,U,58452,999,10794,-.2225935E-5,-.234E-5,0
STARLINK-30957,2023-183S,2025-11-04T20:40:50.358144,15.02536871,.00008046,43.0039,1.8754,276.3906,83.6845,0,U,58453,999,10793,.60942104E-4,.62E-5,0
STARLINK-30966,2023-183T,2025-11-04T20:36:02.793888,15.02533510,.00011036,43.0030,1.8507,274.1258,85.9458,0,U,58454,999,10793,.46179171E-4,.42E-5,0
STARLINK-30935,2023-183U,2025-11-04T20:07:16.035456,15.02539861,.00013266,43.0042,1.6988,262.5655,97.5037,0,U,58455,999,10793,.13805155E-4,-.17E-6,0
STARLINK-30960,2023-183V,2025-11-04T16:37:15.053376,15.28337959,.00007903,43.0006,307.0607,206.6603,153.4209,0,U,58456,999,10856,.95727427E-3,.26793E-3,0
STARLINK-30958,2023-183W,2025-11-04T11:46:15.330144,15.02539015,.0001263,43.0039,3.3948,271.6969,88.3728,0,U,58457,999,10788,.31487E-4,.222E-5,0
STARLINK-30962,2023-183X,2025-11-04T20:45:27.501696,15.02540794,.00012436,43.0052,1.0463,265.9582,94.1118,0,U,58458,999,10794,.4461223E-4,.399E-5,0
STARLINK-30977,2023-183Y,2025-11-04T20:02:28.795200,15.02535315,.00013706,43.0037,1.6764,279.2741,80.7947,0,U,58459,999,10793,.31849431E-4,.227E-5,0
GNOMES-4,2023-185A,2025-11-05T08:09:53.963424,14.98764714,.00109775,97.5290,9.3576,334.4385,25.6294,0,U,58462,999,10573,.35000413E-3,.4163E-4,0
KORSAT-7,2023-185B,2025-11-05T07:40:50.255040,15.01079021,.00256658,97.6345,12.6884,5.4427,354.7072,0,U,58463,999,10570,.22803189E-3,.2876E-4,0
KOYOH,2023-185C,2025-11-05T07:24:38.438208,15.14749038,.00074846,97.5604,17.7052,14.8610,345.2841,0,U,58464,999,10619,.38673173E-3,.7109E-4,0
BANE,2023-185D,2025-11-05T07:39:51.551424,15.50434277,.00040164,97.3655,22.6659,268.4193,91.6598,0,U,58465,999,10772,.78890913E-3,.44999E-3,0
UHETSAT,2023-185E,2025-11-05T07:29:47.963616,15.27451717,.00146636,97.3795,13.9782,32.1787,328.0344,0,U,58466,999,10707,.30982261E-3,.8276E-4,0
LILIUM-1,2023-185F,2025-11-05T07:45:49.612896,15.46409988,.00063787,97.3598,19.6856,280.2385,79.8145,0,U,58467,999,10754,.99666052E-3,.49491E-3,0
SPIRIT,2023-185G,2025-11-05T06:56:14.382240,15.47329720,.00060909,97.3606,20.9206,276.2829,83.7727,0,U,58468,999,10762,.82386332E-3,.42169E-3,0
ION SCV-015,2023-185H,2025-11-05T07:49:06.489120,15.29228777,.00104548,97.5939,28.0388,164.5588,195.5973,0,U,58469,999,10682,.30021723E-3,.845E-4,0
ROBUSTA-1E (ENSO),2023-185J,2025-11-01T16:09:53.563968,16.02640667,.0007748,97.3445,28.0363,264.7060,95.3336,0,U,58470,999,10777,.13838E-2,.814819E-2,.32711E-3
STARLINK-30947,2023-186A,2025-11-04T22:47:11.317920,15.02546041,.00012751,43.0051,25.5734,272.7601,87.3095,0,U,58473,999,10708,.28835646E-4,.186E-5,0
STARLINK-30995,2023-186B,2025-11-05T01:56:59.214624,15.29120535,.00020687,42.9987,232.2403,225.2270,134.8414,0,U,58474,999,10902,.12144792E-2,.34936E-3,0
STARLINK-30941,2023-186C,2025-11-04T22:37:36.062400,15.02545844,.00013844,43.0040,25.5224,266.6474,93.4210,0,U,58475,999,10708,-.12400619E-3,-.1879E-4,0
STARLINK-30980,2023-186D,2025-11-04T22:32:48.181056,15.02532477,.0002317,43.0029,25.4953,263.9303,96.1276,0,U,58476,999,10708,-.83955779E-4,-.1338E-4,0
STARLINK-30965,2023-186E,2025-11-04T12:38:02.192064,15.02535794,.0001304,43.0045,14.5540,274.3626,85.7067,0,U,58477,999,10717,-.16851E-4,-.431E-5,0
STARLINK-30990,2023-186F,2025-11-04T22:28:00.622848,15.02540054,.00011562,43.0048,25.4697,266.3220,93.7490,0,U,58478,999,10712,.28235403E-4,.178E-5,0
STARLINK-30984,2023-186H,2025-11-04T14:57:58.305600,15.02536169,.0001186,43.0043,26.5619,270.8593,89.2114,0,U,58480,999,10704,.16576E-4,.2E-6,0
STARLINK-30956,2023-186J,2025-11-04T20:08:45.694464,15.02560751,.00011552,43.0028,1.1844,279.8879,80.1833,0,U,58481,999,10735,-.40083569E-3,-.5617E-4,0
STARLINK-30997,2023-186K,2025-11-04T21:44:51.780768,15.02546543,.00008741,43.0019,25.2148,286.1859,73.8887,0,U,58482,999,10708,.53012356E-3,.6967E-4,0
STARLINK-30994,2023-186L,2025-11-05T03:00:07.118496,15.27568198,.00005647,43.0021,243.6414,261.0383,99.0405,0,U,58483,999,10875,-.96220468E-4,-.2907E-4,0
STARLINK-30991,2023-186M,2025-11-04T13:17:26.691360,15.02556713,.000142,43.0062,26.8956,269.4746,90.5933,0,U,58484,999,10702,-.24557E-3,-.3521E-4,0
STARLINK-30979,2023-186N,2025-11-04T22:18:25.497792,15.02533835,.00011469,43.0025,25.4207,270.8453,89.2257,0,U,58485,999,10707,.16765874E-4,.23E-6,0
STARLINK-31005,2023-186P,2025-11-04T22:13:37.677792,15.02553394,.00009436,43.0036,25.3940,269.7958,90.2776,0,U,58486,999,10707,.1418379E-5,-.184E-5,0
STARLINK-30987,2023-186Q,2025-11-04T15:45:55.308960,15.02535916,.00011559,43.0034,26.8132,286.5938,73.4778,0,U,58487,999,10703,.60217496E-4,.61E-5,0
STARLINK-31000,2023-186R,2025-11-04T22:04:02.541504,15.02533424,.00011987,43.0034,25.3422,277.1152,82.9554,0,U,58488,999,10707,.43762239E-4,.388E-5,0
STARLINK-30993,2023-186S,2025-11-04T21:59:14.152992,15.02536457,.00013076,43.0061,25.3191,272.8671,87.2021,0,U,58489,999,10707,-.10040054E-3,-.156E-4,0
STARLINK-30978,2023-186T,2025-11-04T21:54:26.486784,15.02545662,.00016383,43.0041,25.2936,279.1519,80.9138,0,U,58490,999,10707,.30346055E-3,.3899E-4,0
STARLINK-30953,2023-186U,2025-11-05T03:37:35.777856,15.27582597,.0001536,43.0023,250.8283,283.1890,76.8790,0,U,58491,999,10884,-.4210538E-4,-.1421E-4,0
STARLINK-30986,2023-186V,2025-11-04T15:17:06.896832,15.02553990,.0001656,43.0036,26.6618,274.7488,85.3166,0,U,58492,999,10703,.16061E-3,.1968E-4,0
STARLINK-30985,2023-186W,2025-11-04T21:35:15.662112,15.02542022,.00014549,43.0070,25.1928,273.6561,86.4115,0,U,58493,999,10707,.55759021E-4,.55E-5,0
STARLINK-30981,2023-186X,2025-11-04T13:31:49.791936,15.02538643,.0001174,43.0036,26.9739,276.9576,83.1133,0,U,58494,999,10702,.38419E-4,.315E-5,0
STARLINK-31002,2023-186Y,2025-11-04T15:02:45.972672,15.02538613,.0001443,43.0044,26.5882,269.2996,90.7681,0,U,58495,999,10720,-.44518E-4,-.805E-5,0
XINGCHI-1 02A,2023-187A,2025-11-05T06:09:54.051840,14.83242260,.00125275,97.9455,28.4736,150.2568,209.9360,0,U,58496,999,10391,.28133539E-3,.2249E-4,0
MISRSAT-2,2023-187B,2025-11-05T07:18:24.924096,14.82403829,.0011918,97.9467,27.9022,150.3964,209.7926,0,U,58497,999,10386,.27193098E-3,.2127E-4,0
XINGCHI-1 02B,2023-187C,2025-11-05T07:10:33.703680,14.84691366,.00116801,97.9479,29.1350,147.6779,212.5153,0,U,58498,999,10394,.42830846E-3,.3576E-4,0
DOORY-SAT,2023-188A,2025-11-05T07:06:26.535744,14.79737475,.00080204,46.9825,310.3473,46.2887,313.8670,0,U,58500,999,10382,.28895434E-3,.1994E-4,0
2023-189A,2023-189A,2025-11-05T07:17:54.031776,15.30798619,.00110626,97.4509,321.3524,345.9135,14.1795,0,U,58502,999,10693,.18058877E-3,.5305E-4,0
